[
    {
        "Altitude(m)": 605459.0600071896,
        "Argument of Periapsis(deg)": 0.0,
        "Eccentricity": 0.0,
        "Inclination(deg)": 60.0,
        "Latitude(deg)": 27.988315335790897,
        "Longitude(deg)": 57.79854743450381,
        "Mean Anomaly(deg)": 32.72730000000001,
        "RAAN(deg)": 140.0,
        "Satellite Name": "Test1 618",
        "Satellite Number": 618,
        "Semi-Major Axis(m)": 6980739.136638005,
        "Time(s)": 0
    },
    {
        "Altitude(m)": 605535.8515366489,
        "Argument of Periapsis(deg)": 0.00010418945913296404,
        "Eccentricity": 0.0,
        "Inclination(deg)": 60.0,
        "Latitude(deg)": 28.50144527549556,
        "Longitude(deg)": 58.15549204142533,
        "Mean Anomaly(deg)": 33.34740614546182,
        "RAAN(deg)": 139.99957995086024,
        "Satellite Name": "Test1 618",
        "Satellite Number": 618,
        "Semi-Major Axis(m)": 6980739.136638005,
        "Time(s)": 10
    },
    {
        "Altitude(m)": 605614.3336763226,
        "Argument of Periapsis(deg)": 0.0002083789182659281,
        "Eccentricity": 0.0,
        "Inclination(deg)": 60.0,
        "Latitude(deg)": 29.013357691438944,
        "Longitude(deg)": 58.51630150145628,
        "Mean Anomaly(deg)": 33.967512290923665,
        "RAAN(deg)": 139.99915990172053,
        "Satellite Name": "Test1 618",
        "Satellite Number": 618,
        "Semi-Major Axis(m)": 6980739.136638005,
        "Time(s)": 20
    },
    {
        "Altitude(m)": 605694.4487338567,
        "Argument of Periapsis(deg)": 0.00031256837739889213,
        "Eccentricity": 0.0,
        "Inclination(deg)": 60.0,
        "Latitude(deg)": 29.524015310668446,
        "Longitude(deg)": 58.881087571142636,
        "Mean Anomaly(deg)": 34.5876184363855,
        "RAAN(deg)": 139.99873985258074,
        "Satellite Name": "Test1 618",
        "Satellite Number": 618,
        "Semi-Major Axis(m)": 6980739.136638005,
        "Time(s)": 30
    },
    {
        "Altitude(m)": 605776.1384075477,
        "Argument of Periapsis(deg)": 0.0004167578365318562,
        "Eccentricity": 0.0,
        "Inclination(deg)": 60.0,
        "Latitude(deg)": 30.033379863754188,
        "Longitude(deg)": 59.24996501336494,
        "Mean Anomaly(deg)": 35.20772458184732,
        "RAAN(deg)": 139.998319803441,
        "Satellite Name": "Test1 618",
        "Satellite Number": 618,
        "Semi-Major Axis(m)": 6980739.136638005,
        "Time(s)": 40
    },
    {
        "Altitude(m)": 605859.3438166869,
        "Argument of Periapsis(deg)": 0.0005209472956648203,
        "Eccentricity": 0.0,
        "Inclination(deg)": 60.0,
        "Latitude(deg)": 30.541412046052788,
        "Longitude(deg)": 59.62305065615416,
        "Mean Anomaly(deg)": 35.82783072730915,
        "RAAN(deg)": 139.99789975430127,
        "Satellite Name": "Test1 618",
        "Satellite Number": 618,
        "Semi-Major Axis(m)": 6980739.136638005,
        "Time(s)": 50
    },
    {
        "Altitude(m)": 605944.0055321491,
        "Argument of Periapsis(deg)": 0.0006251367547977843,
        "Eccentricity": 0.0,
        "Inclination(deg)": 60.0,
        "Latitude(deg)": 31.048071477615537,
        "Longitude(deg)": 60.000463964556765,
        "Mean Anomaly(deg)": 36.447936872770974,
        "RAAN(deg)": 139.99747970516154,
        "Satellite Name": "Test1 618",
        "Satellite Number": 618,
        "Semi-Major Axis(m)": 6980739.136638005,
        "Time(s)": 60
    },
    {
        "Altitude(m)": 606030.0636071928,
        "Argument of Periapsis(deg)": 0.0007293262139307483,
        "Eccentricity": 0.0,
        "Inclination(deg)": 60.0,
        "Latitude(deg)": 31.553316661697504,
        "Longitude(deg)": 60.3823276125112,
        "Mean Anomaly(deg)": 37.06804301823281,
        "RAAN(deg)": 139.99705965602178,
        "Satellite Name": "Test1 618",
        "Satellite Number": 618,
        "Semi-Major Axis(m)": 6980739.136638005,
        "Time(s)": 70
    },
    {
        "Altitude(m)": 606117.457608455,
        "Argument of Periapsis(deg)": 0.0008335156730637124,
        "Eccentricity": 0.0,
        "Inclination(deg)": 60.0,
        "Latitude(deg)": 32.05710494182676,
        "Longitude(deg)": 60.7687665416772,
        "Mean Anomaly(deg)": 37.68814916369463,
        "RAAN(deg)": 139.99663960688204,
        "Satellite Name": "Test1 618",
        "Satellite Number": 618,
        "Semi-Major Axis(m)": 6980739.136638005,
        "Time(s)": 80
    },
    {
        "Altitude(m)": 606206.1266471602,
        "Argument of Periapsis(deg)": 0.0009377051321966765,
        "Eccentricity": 0.0,
        "Inclination(deg)": 60.0,
        "Latitude(deg)": 32.55939245739698,
        "Longitude(deg)": 61.15990853275767,
        "Mean Anomaly(deg)": 38.308255309156486,
        "RAAN(deg)": 139.9962195577423,
        "Satellite Name": "Test1 618",
        "Satellite Number": 618,
        "Semi-Major Axis(m)": 6980739.136638005,
        "Time(s)": 90
    },
    {
        "Altitude(m)": 606296.009410465,
        "Argument of Periapsis(deg)": 0.0010418945913296407,
        "Eccentricity": 0.0,
        "Inclination(deg)": 60.0,
        "Latitude(deg)": 33.06013409774324,
        "Longitude(deg)": 61.555884776207314,
        "Mean Anomaly(deg)": 38.92836145461831,
        "RAAN(deg)": 139.99579950860257,
        "Satellite Name": "Test1 618",
        "Satellite Number": 618,
        "Semi-Major Axis(m)": 6980739.136638005,
        "Time(s)": 100
    },
    {
        "Altitude(m)": 606387.0441929868,
        "Argument of Periapsis(deg)": 0.0011460840504626045,
        "Eccentricity": 0.0,
        "Inclination(deg)": 60.0,
        "Latitude(deg)": 33.55928345466276,
        "Longitude(deg)": 61.956828929188376,
        "Mean Anomaly(deg)": 39.548467600080116,
        "RAAN(deg)": 139.9953794594628,
        "Satellite Name": "Test1 618",
        "Satellite Number": 618,
        "Semi-Major Axis(m)": 6980739.136638005,
        "Time(s)": 110
    },
    {
        "Altitude(m)": 606479.1689284563,
        "Argument of Periapsis(deg)": 0.0012502735095955685,
        "Eccentricity": 0.0,
        "Inclination(deg)": 60.0,
        "Latitude(deg)": 34.05679277334765,
        "Longitude(deg)": 62.3628776842339,
        "Mean Anomaly(deg)": 40.16857374554196,
        "RAAN(deg)": 139.99495941032308,
        "Satellite Name": "Test1 618",
        "Satellite Number": 618,
        "Semi-Major Axis(m)": 6980739.136638005,
        "Time(s)": 120
    },
    {
        "Altitude(m)": 606572.3212214867,
        "Argument of Periapsis(deg)": 0.0013544629687285324,
        "Eccentricity": 0.0,
        "Inclination(deg)": 60.0,
        "Latitude(deg)": 34.552612901694225,
        "Longitude(deg)": 62.77417133641517,
        "Mean Anomaly(deg)": 40.788679891003795,
        "RAAN(deg)": 139.99453936118334,
        "Satellite Name": "Test1 618",
        "Satellite Number": 618,
        "Semi-Major Axis(m)": 6980739.136638005,
        "Time(s)": 130
    },
    {
        "Altitude(m)": 606666.4383794704,
        "Argument of Periapsis(deg)": 0.0014586524278614966,
        "Eccentricity": 0.0,
        "Inclination(deg)": 60.0,
        "Latitude(deg)": 35.046693237957285,
        "Longitude(deg)": 63.19085283577906,
        "Mean Anomaly(deg)": 41.40878603646562,
        "RAAN(deg)": 139.9941193120436,
        "Satellite Name": "Test1 618",
        "Satellite Number": 618,
        "Semi-Major Axis(m)": 6980739.136638005,
        "Time(s)": 140
    },
    {
        "Altitude(m)": 606761.4574445552,
        "Argument of Periapsis(deg)": 0.0015628418869944607,
        "Eccentricity": 0.0,
        "Inclination(deg)": 60.0,
        "Latitude(deg)": 35.538981676723374,
        "Longitude(deg)": 63.61306835040178,
        "Mean Anomaly(deg)": 42.02889218192745,
        "RAAN(deg)": 139.99369926290385,
        "Satellite Name": "Test1 618",
        "Satellite Number": 618,
        "Semi-Major Axis(m)": 6980739.136638005,
        "Time(s)": 150
    },
    {
        "Altitude(m)": 606857.3152256852,
        "Argument of Periapsis(deg)": 0.0016670313461274247,
        "Eccentricity": 0.0,
        "Inclination(deg)": 60.0,
        "Latitude(deg)": 36.029424553177655,
        "Longitude(deg)": 64.04096782674148,
        "Mean Anomaly(deg)": 42.64899832738928,
        "RAAN(deg)": 139.99327921376414,
        "Satellite Name": "Test1 618",
        "Satellite Number": 618,
        "Semi-Major Axis(m)": 6980739.136638005,
        "Time(s)": 160
    },
    {
        "Altitude(m)": 606953.9483307267,
        "Argument of Periapsis(deg)": 0.0017712208052603888,
        "Eccentricity": 0.0,
        "Inclination(deg)": 60.0,
        "Latitude(deg)": 36.51796658564247,
        "Longitude(deg)": 64.47470403392366,
        "Mean Anomaly(deg)": 43.269104472851105,
        "RAAN(deg)": 139.99285916462438,
        "Satellite Name": "Test1 618",
        "Satellite Number": 618,
        "Semi-Major Axis(m)": 6980739.136638005,
        "Time(s)": 170
    },
    {
        "Altitude(m)": 607051.2931986175,
        "Argument of Periapsis(deg)": 0.001875410264393353,
        "Eccentricity": 0.0,
        "Inclination(deg)": 60.0,
        "Latitude(deg)": 37.00455081637543,
        "Longitude(deg)": 64.91443311716971,
        "Mean Anomaly(deg)": 43.88921061831296,
        "RAAN(deg)": 139.99243911548464,
        "Satellite Name": "Test1 618",
        "Satellite Number": 618,
        "Semi-Major Axis(m)": 6980739.136638005,
        "Time(s)": 180
    },
    {
        "Altitude(m)": 607149.2861315457,
        "Argument of Periapsis(deg)": 0.0019795997235263173,
        "Eccentricity": 0.0,
        "Inclination(deg)": 60.0,
        "Latitude(deg)": 37.48911855061609,
        "Longitude(deg)": 65.36031514689884,
        "Mean Anomaly(deg)": 44.509316763774784,
        "RAAN(deg)": 139.99201906634488,
        "Satellite Name": "Test1 618",
        "Satellite Number": 618,
        "Semi-Major Axis(m)": 6980739.136638005,
        "Time(s)": 190
    }
]